[{"OBJECT_NAME":"STARLINK-34199","OBJECT_ID":"2025-157W","EPOCH":"2026-03-09T22:17:48.687936","MEAN_MOTION":15.30212146,"ECCENTRICITY":0.00011143,"INCLINATION":53.1589,"RA_OF_ASC_NODE":344.3271,"ARG_OF_PERICENTER":70.3805,"MEAN_ANOMALY":289.7316,"EPHEMERIS_TYPE":0,"CLASSIFICATION_TYPE":"U","NORAD_CAT_ID":64924,"ELEMENT_SET_NO":999,"REV_AT_EPOCH":3611,"BSTAR":0.0010189799,"MEAN_MOTION_DOT":0.00029953,"MEAN_MOTION_DDOT":0},{"OBJECT_NAME":"ARIANE 40 R\/B","OBJECT_ID":"1999-064C","EPOCH":"2026-03-09T18:24:37.025280","MEAN_MOTION":15.31364882,"ECCENTRICITY":0.00050095,"INCLINATION":98.1631,"RA_OF_ASC_NODE":150.8872,"ARG_OF_PERICENTER":91.4057,"MEAN_ANOMALY":268.7755,"EPHEMERIS_TYPE":0,"CLASSIFICATION_TYPE":"U","NORAD_CAT_ID":25979,"ELEMENT_SET_NO":999,"REV_AT_EPOCH":42869,"BSTAR":0.00066758353,"MEAN_MOTION_DOT":0.00020173,"MEAN_MOTION_DDOT":0}]
